{
  "norad_id": 41920,
  "name": "IRIDIUM 102",
  "history": [
    {
      "epoch": "2026-03-28T21:26:30.057216Z",
      "apogee_km": 779.3275297255723,
      "perigee_km": 776.0025147579172,
      "latitude_deg": 4.1416808655935126e-05,
      "longitude_deg": -25.91375034026875,
      "height_km": 780.8044281561359,
      "semi_major_axis_km": 7155.802022241744,
      "eccentricity": 0.00023233,
      "inclination_deg": 86.3941,
      "raan_deg": 122.0188,
      "arg_perigee_deg": 93.1841,
      "mean_anomaly_deg": 266.9621,
      "mean_motion_rev_day": 14.34218391
    },
    {
      "epoch": "2026-03-29T04:08:22.044768Z",
      "apogee_km": 779.3282072380525,
      "perigee_km": 776.0007595482748,
      "latitude_deg": -7.707365173217288e-05,
      "longitude_deg": -126.77214033868329,
      "height_km": 780.8056404401382,
      "semi_major_axis_km": 7155.801483393163,
      "eccentricity": 0.0002325,
      "inclination_deg": 86.3941,
      "raan_deg": 121.9021,
      "arg_perigee_deg": 93.2416,
      "mean_anomaly_deg": 266.9045,
      "mean_motion_rev_day": 14.34218553
    },
    {
      "epoch": "2026-03-30T03:34:54.002496Z",
      "apogee_km": 779.3333496540354,
      "perigee_km": 775.994452953486,
      "latitude_deg": -7.667925202455701e-05,
      "longitude_deg": -119.77653429630828,
      "height_km": 780.7956583460084,
      "semi_major_axis_km": 7155.80090130376,
      "eccentricity": 0.0002333,
      "inclination_deg": 86.3939,
      "raan_deg": 121.4936,
      "arg_perigee_deg": 92.9081,
      "mean_anomaly_deg": 267.2381,
      "mean_motion_rev_day": 14.34218728
    },
    {
      "epoch": "2026-03-30T05:15:21.997440Z",
      "apogee_km": 779.3321065518794,
      "perigee_km": 775.9956428360438,
      "latitude_deg": -5.767485741216601e-05,
      "longitude_deg": -144.9911455564882,
      "height_km": 780.7948894177462,
      "semi_major_axis_km": 7155.800874693961,
      "eccentricity": 0.00023313,
      "inclination_deg": 86.3939,
      "raan_deg": 121.4644,
      "arg_perigee_deg": 92.8847,
      "mean_anomaly_deg": 267.2615,
      "mean_motion_rev_day": 14.34218736
    },
    {
      "epoch": "2026-03-30T13:37:41.975616Z",
      "apogee_km": 779.3303593267628,
      "perigee_km": 775.996758078486,
      "latitude_deg": -3.65190481425576e-05,
      "longitude_deg": 88.93587907279479,
      "height_km": 780.792130086236,
      "semi_major_axis_km": 7155.800558702625,
      "eccentricity": 0.00023293,
      "inclination_deg": 86.3939,
      "raan_deg": 121.3185,
      "arg_perigee_deg": 92.8031,
      "mean_anomaly_deg": 267.3431,
      "mean_motion_rev_day": 14.34218831
    },
    {
      "epoch": "2026-03-30T20:19:33.956256Z",
      "apogee_km": 779.3334730279776,
      "perigee_km": 775.9931454436264,
      "latitude_deg": 9.346491377330843e-06,
      "longitude_deg": -11.922471467889386,
      "height_km": 780.7913144678058,
      "semi_major_axis_km": 7155.800309235802,
      "eccentricity": 0.0002334,
      "inclination_deg": 86.3938,
      "raan_deg": 121.2018,
      "arg_perigee_deg": 92.7786,
      "mean_anomaly_deg": 267.3677,
      "mean_motion_rev_day": 14.34218906
    },
    {
      "epoch": "2026-03-31T16:25:09.975936Z",
      "apogee_km": 779.3400707514802,
      "perigee_km": 775.9983092607481,
      "latitude_deg": -7.679511129628037e-06,
      "longitude_deg": 45.502142499999316,
      "height_km": 780.7893399272269,
      "semi_major_axis_km": 7155.806190006114,
      "eccentricity": 0.0002335,
      "inclination_deg": 86.3938,
      "raan_deg": 120.8517,
      "arg_perigee_deg": 92.5079,
      "mean_anomaly_deg": 267.6384,
      "mean_motion_rev_day": 14.34217138
    },
    {
      "epoch": "2026-04-01T14:11:14.028576Z",
      "apogee_km": 779.350228341731,
      "perigee_km": 775.9898613534706,
      "latitude_deg": 4.6380776849205745e-05,
      "longitude_deg": 77.71158959341513,
      "height_km": 780.7943761467,
      "semi_major_axis_km": 7155.8070448476,
      "eccentricity": 0.0002348,
      "inclination_deg": 86.3936,
      "raan_deg": 120.472,
      "arg_perigee_deg": 92.6379,
      "mean_anomaly_deg": 267.5086,
      "mean_motion_rev_day": 14.34216881
    },
    {
      "epoch": "2026-04-02T18:39:10.072224Z",
      "apogee_km": 779.3556105771922,
      "perigee_km": 775.982363634871,
      "latitude_deg": -6.971257226220626e-05,
      "longitude_deg": 9.063028837419703,
      "height_km": 780.7730554074203,
      "semi_major_axis_km": 7155.805987106031,
      "eccentricity": 0.0002357,
      "inclination_deg": 86.3935,
      "raan_deg": 119.976,
      "arg_perigee_deg": 91.9391,
      "mean_anomaly_deg": 268.2074,
      "mean_motion_rev_day": 14.34217199
    }
  ]
}